1 37673U 11024A   14047.64591622  .00000620  00000-0  10596-3 0  9997
2 37673 098.0133 056.5748 0001459 103.9420 033.5409 14.72311230144495
